{
  "type": "FeatureCollection",
  "features": [
    {
      "type": "Feature",
      "properties": {
        "norad_id": 66450,
        "name": "STARLINK-35334",
        "group": "last-30-days",
        "lat": -15.003695057571209,
        "lon": -111.44192415606396,
        "alt_km": 415.0097064997017,
        "timestamp": "2025-12-11T22:43:46.022533+00:00",
        "meta_object_name": "STARLINK-35334",
        "meta_object_id": "2025-259AE",
        "meta_epoch": "2025-12-10T13:24:02.373120",
        "meta_mean_motion": 15.50613633,
        "meta_eccentricity": 0.0002029,
        "meta_inclination": 43.003,
        "meta_ra_of_asc_node": 59.9713,
        "meta_arg_of_pericenter": 266.842,
        "meta_mean_anomaly": 93.2208,
        "meta_ephemeris_type": 0,
        "meta_classification_type": "U",
        "meta_norad_cat_id": 66450,
        "meta_element_set_no": 999,
        "meta_rev_at_epoch": 583,
        "meta_bstar": 0.0021725,
        "meta_mean_motion_dot": 0.00129395,
        "meta_mean_motion_ddot": 0,
        "tle_line1": "1 66450U 25259AE  25344.55836080  .00129395  00000+0  21725-2 0  9994",
        "tle_line2": "2 66450  43.0030  59.9713 0002029 266.8420  93.2208 15.50613633  5831"
      },
      "geometry": {
        "type": "Point",
        "coordinates": [
          -111.44192415606396,
          -15.003695057571209
        ]
      }
    },
    {
      "type": "Feature",
      "properties": {
        "norad_id": 66454,
        "name": "VIASAT-3 F2",
        "group": "last-30-days",
        "lat": -5.099751958126209,
        "lon": -178.6250281789719,
        "alt_km": 14804.150920281016,
        "timestamp": "2025-12-11T22:43:46.022548+00:00",
        "meta_object_name": "VIASAT-3 F2",
        "meta_object_id": "2025-261A",
        "meta_epoch": "2025-12-08T12:11:15.383616",
        "meta_mean_motion": 2.19142646,
        "meta_eccentricity": 0.22792154,
        "meta_inclination": 5.457,
        "meta_ra_of_asc_node": 292.6501,
        "meta_arg_of_pericenter": 190.5469,
        "meta_mean_anomaly": 204.5187,
        "meta_ephemeris_type": 0,
        "meta_classification_type": "U",
        "meta_norad_cat_id": 66454,
        "meta_element_set_no": 999,
        "meta_rev_at_epoch": 55,
        "meta_bstar": 0,
        "meta_mean_motion_dot": -8.1e-07,
        "meta_mean_motion_ddot": 0,
        "tle_line1": "1 66454U 25261A   25342.50781694 -.00000081  00000+0  00000+0 0  9995",
        "tle_line2": "2 66454   5.4570 292.6501 2279215 190.5469 204.5187  2.19142646   557"
      },
      "geometry": {
        "type": "Point",
        "coordinates": [
          -178.6250281789719,
          -5.099751958126209
        ]
      }
    },
    {
      "type": "Feature",
      "properties": {
        "norad_id": 66455,
        "name": "ATLAS 5 CENTAUR R/B",
        "group": "last-30-days",
        "lat": 2.8750476983543987,
        "lon": -40.51414479416552,
        "alt_km": 23029.99071379184,
        "timestamp": "2025-12-11T22:43:46.022561+00:00",
        "meta_object_name": "ATLAS 5 CENTAUR R/B",
        "meta_object_id": "2025-261B",
        "meta_epoch": "2025-12-11T15:16:36.105600",
        "meta_mean_motion": 2.28259842,
        "meta_eccentricity": 0.23294675,
        "meta_inclination": 6.1471,
        "meta_ra_of_asc_node": 291.7267,
        "meta_arg_of_pericenter": 186.2623,
        "meta_mean_anomaly": 318.1786,
        "meta_ephemeris_type": 0,
        "meta_classification_type": "U",
        "meta_norad_cat_id": 66455,
        "meta_element_set_no": 999,
        "meta_rev_at_epoch": 62,
        "meta_bstar": 0,
        "meta_mean_motion_dot": -7.8e-07,
        "meta_mean_motion_ddot": 0,
        "tle_line1": "1 66455U 25261B   25345.63652900 -.00000078  00000+0  00000+0 0  9996",
        "tle_line2": "2 66455   6.1471 291.7267 2329467 186.2623 318.1786  2.28259842   626"
      },
      "geometry": {
        "type": "Point",
        "coordinates": [
          -40.51414479416552,
          2.8750476983543987
        ]
      }
    },
    {
      "type": "Feature",
      "properties": {
        "norad_id": 66456,
        "name": "STARLINK-35643",
        "group": "last-30-days",
        "lat": 39.63775351231171,
        "lon": 138.92413001189547,
        "alt_km": 438.66133192717825,
        "timestamp": "2025-12-11T22:43:46.022573+00:00",
        "meta_object_name": "STARLINK-35643",
        "meta_object_id": "2025-262A",
        "meta_epoch": "2025-12-11T14:00:01.999872",
        "meta_mean_motion": 15.40559128,
        "meta_eccentricity": 0.00014783,
        "meta_inclination": 43,
        "meta_ra_of_asc_node": 78.2771,
        "meta_arg_of_pericenter": 292.7962,
        "meta_mean_anomaly": 277.0235,
        "meta_ephemeris_type": 0,
        "meta_classification_type": "U",
        "meta_norad_cat_id": 66456,
        "meta_element_set_no": 999,
        "meta_rev_at_epoch": 545,
        "meta_bstar": 0.0020671847,
        "meta_mean_motion_dot": 0.00086628,
        "meta_mean_motion_ddot": 0,
        "tle_line1": "1 66456U 25262A   25345.58335648  .00086628  00000+0  20672-2 0  9993",
        "tle_line2": "2 66456  43.0000  78.2771 0001478 292.7962 277.0235 15.40559128  5455"
      },
      "geometry": {
        "type": "Point",
        "coordinates": [
          138.92413001189547,
          39.63775351231171
        ]
      }
    },
    {
      "type": "Feature",
      "properties": {
        "norad_id": 66457,
        "name": "STARLINK-35466",
        "group": "last-30-days",
        "lat": 42.831869303603206,
        "lon": 171.93941692199328,
        "alt_km": 438.25526993652056,
        "timestamp": "2025-12-11T22:43:46.022586+00:00",
        "meta_object_name": "STARLINK-35466",
        "meta_object_id": "2025-262B",
        "meta_epoch": "2025-12-11T14:00:01.999872",
        "meta_mean_motion": 15.40781809,
        "meta_eccentricity": 0.00010785,
        "meta_inclination": 42.9997,
        "meta_ra_of_asc_node": 78.2176,
        "meta_arg_of_pericenter": 247.8631,
        "meta_mean_anomaly": 346.7267,
        "meta_ephemeris_type": 0,
        "meta_classification_type": "U",
        "meta_norad_cat_id": 66457,
        "meta_element_set_no": 999,
        "meta_rev_at_epoch": 545,
        "meta_bstar": -0.0061927042,
        "meta_mean_motion_dot": -0.00251328,
        "meta_mean_motion_ddot": 0,
        "tle_line1": "1 66457U 25262B   25345.58335648 -.00251328  00000+0 -61927-2 0  9995",
        "tle_line2": "2 66457  42.9997  78.2176 0001078 247.8631 346.7267 15.40781809  5450"
      },
      "geometry": {
        "type": "Point",
        "coordinates": [
          171.93941692199328,
          42.831869303603206
        ]
      }
    },
    {
      "type": "Feature",
      "properties": {
        "norad_id": 66458,
        "name": "STARLINK-35684",
        "group": "last-30-days",
        "lat": 42.43954363203615,
        "lon": 155.04302630631122,
        "alt_km": 438.2756467179124,
        "timestamp": "2025-12-11T22:43:46.022597+00:00",
        "meta_object_name": "STARLINK-35684",
        "meta_object_id": "2025-262C",
        "meta_epoch": "2025-12-11T14:00:01.999872",
        "meta_mean_motion": 15.40814049,
        "meta_eccentricity": 9.244e-05,
        "meta_inclination": 42.9998,
        "meta_ra_of_asc_node": 78.2468,
        "meta_arg_of_pericenter": 247.6399,
        "meta_mean_anomaly": 334.5094,
        "meta_ephemeris_type": 0,
        "meta_classification_type": "U",
        "meta_norad_cat_id": 66458,
        "meta_element_set_no": 999,
        "meta_rev_at_epoch": 545,
        "meta_bstar": -0.0073971895,
        "meta_mean_motion_dot": -0.00298636,
        "meta_mean_motion_ddot": 0,
        "tle_line1": "1 66458U 25262C   25345.58335648 -.00298636  00000+0 -73972-2 0  9992",
        "tle_line2": "2 66458  42.9998  78.2468 0000924 247.6399 334.5094 15.40814049  5450"
      },
      "geometry": {
        "type": "Point",
        "coordinates": [
          155.04302630631122,
          42.43954363203615
        ]
      }
    },
    {
      "type": "Feature",
      "properties": {
        "norad_id": 66459,
        "name": "STARLINK-35449",
        "group": "last-30-days",
        "lat": 40.7650210510649,
        "lon": -171.60114200346317,
        "alt_km": 438.8050999198431,
        "timestamp": "2025-12-11T22:43:46.022608+00:00",
        "meta_object_name": "STARLINK-35449",
        "meta_object_id": "2025-262D",
        "meta_epoch": "2025-12-11T14:00:01.999872",
        "meta_mean_motion": 15.40563139,
        "meta_eccentricity": 0.00015149,
        "meta_inclination": 43.0003,
        "meta_ra_of_asc_node": 78.1856,
        "meta_arg_of_pericenter": 290.496,
        "meta_mean_anomaly": 316.6405,
        "meta_ephemeris_type": 0,
        "meta_classification_type": "U",
        "meta_norad_cat_id": 66459,
        "meta_element_set_no": 999,
        "meta_rev_at_epoch": 545,
        "meta_bstar": 0.0019684807,
        "meta_mean_motion_dot": 0.00082442,
        "meta_mean_motion_ddot": 0,
        "tle_line1": "1 66459U 25262D   25345.58335648  .00082442  00000+0  19685-2 0  9998",
        "tle_line2": "2 66459  43.0003  78.1856 0001514 290.4960 316.6405 15.40563139  5454"
      },
      "geometry": {
        "type": "Point",
        "coordinates": [
          -171.60114200346317,
          40.7650210510649
        ]
      }
    }
  ]
}